BEIDOU-3 M6             
1 43582U 18062B   23266.31015018  .00000030  00000+0  00000+0 0  9998
2 43582  54.1737 216.2557 0005355   2.4031 357.5837  1.86229634 35059
BEIDOU-3 M12            
1 43602U 18067A   23266.24627787  .00000029  00000+0  00000+0 0  9998
2 43602  54.2612 214.9146 0007212  14.7437 345.2624  1.86231419 34538
BEIDOU-3 M11            
1 43603U 18067B   23266.38010426  .00000027  00000+0  00000+0 0  9998
2 43603  54.2584 214.8757 0004252   1.1457 358.8400  1.86231404 34566
BEIDOU-3 M13            
1 43622U 18072A   23265.80210065  .00000040  00000+0  00000+0 0  9997
2 43622  55.7849  95.8471 0004120 295.2221  64.8018  1.86231482 34066
BEIDOU-3 M14            
1 43623U 18072B   23266.20450766  .00000043  00000+0  00000+0 0  9990
2 43623  55.7872  95.8263 0002600 350.1144   9.9478  1.86231516 34066
BEIDOU-3 M16            
1 43647U 18078A   23266.36739830 -.00000066  00000+0  00000+0 0  9997
2 43647  54.8968 334.6846 0005925   5.5371 354.5295  1.86227175 33572
BEIDOU-3 M15            
1 43648U 18078B   23266.49750374 -.00000066  00000+0  00000+0 0  9998
2 43648  54.8924 334.6840 0002741  14.7744 345.2936  1.86232145 33592
BEIDOU-3 G1             
1 43683U 18085A   23266.50245874 -.00000281  00000+0  00000+0 0  9990
2 43683   1.5539 123.0895 0002980 354.5980 205.3953  1.00271846 18050
COSMOS 2529             
1 43687U 18086A   23266.53639392  .00000052  00000+0  00000+0 0  9995
2 43687  64.3146 226.3681 0010934 263.0607  96.8074  2.13101976 38020
BEIDOU-3 M17            
1 43706U 18093A   23266.10847120  .00000032  00000+0  00000+0 0  9996
2 43706  54.2565 216.1917 0009858 282.6932  77.1816  1.86231866 32958
BEIDOU-3 M18            
1 43707U 18093B   23266.51160027  .00000027  00000+0  00000+0 0  9990
2 43707  54.2572 216.1696 0008264 309.2459  50.6644  1.86229687 32954
NAVSTAR 77 (USA 289)    
1 43873U 18109A   23266.09042444  .00000025  00000+0  00000+0 0  9995
2 43873  55.1986 131.6245 0026070 190.3634 337.6915  2.00569429 35058
BEIDOU-3 IGSO-1         
1 44204U 19023A   23265.96850434 -.00000192  00000+0  00000+0 0  9997
2 44204  57.2480  48.0490 0024087 195.0654 227.0839  1.00276590 16332
BEIDOU-2 G8             
1 44231U 19027A   23266.50332897 -.00000252  00000+0  00000+0 0  9997
2 44231   2.0022  81.0354 0006747 132.7881 113.8215  1.00265419 16070
COSMOS 2534             
1 44299U 19030A   23266.41634063  .00000053  00000+0  00000+0 0  9993
2 44299  64.3871 226.3004 0013136 282.6065 119.4340  2.13101786 33668
BEIDOU-3 IGSO-2         
1 44337U 19035A   23266.42970156 -.00000157  00000+0  00000+0 0  9994
2 44337  55.1521 167.6250 0032956 196.0507 272.6505  1.00268497 15664
NAVSTAR 78 (USA 293)    
1 44506U 19056A   23266.43901878 -.00000079  00000+0  00000+0 0  9994
2 44506  55.8233  10.6858 0037534 185.9261 133.1234  2.00565713 30053
BEIDOU-3 M24            
1 44542U 19061A   23266.04621481  .00000034  00000+0  00000+0 0  9996
2 44542  54.4838 216.4270 0008481 343.6130  16.3446  1.86231445 27205
BEIDOU-3 M23            
1 44543U 19061B   23266.45037584  .00000029  00000+0  00000+0 0  9991
2 44543  54.4822 216.3829 0005837 329.1065 213.7388  1.86231701 27210
BEIDOU-3 IGSO-3         
1 44709U 19073A   23265.47333159 -.00000143  00000+0  00000+0 0  9994
2 44709  56.5042 291.5598 0035247 190.3414 169.6557  1.00276646 14444
BEIDOU-3 M22            
1 44793U 19078A   23266.42856220 -.00000066  00000+0  00000+0 0  9991
2 44793  54.7453 334.6473 0004758  14.1100 345.9632  1.86232109 26066
BEIDOU-3 M21            
1 44794U 19078B   23264.94823783 -.00000067  00000+0  00000+0 0  9996
2 44794  54.7199 334.6803 0002768   1.0734 358.9879  1.86232574 26049
COSMOS 2544             
1 44850U 19088A   23265.91163575  .00000061  00000+0  00000+0 0  9997
2 44850  65.0850 107.1691 0011168 249.8968 110.0599  2.13102129 29440
BEIDOU-3 M19            
1 44864U 19090A   23265.97955843  .00000041  00000+0  00000+0 0  9996
2 44864  55.7193  96.0277 0015282 274.1860 251.0835  1.86231627 25642
BEIDOU-3 M20            
1 44865U 19090B   23262.91678747  .00000028  00000+0  00000+0 0  9998
2 44865  55.7185  96.1630 0013066 289.9285  71.6816  1.86231769 25575
BEIDOU-3 G2             
1 45344U 20017A   23266.55813069 -.00000143  00000+0  00000+0 0  9993
2 45344   2.0601  17.1419 0003263 162.1194 103.8505  1.00270552 13257
COSMOS 2545             
1 45358U 20018A   23266.57769690 -.00000062  00000+0  00000+0 0  9991
2 45358  64.8375 347.2561 0010628 239.4121 120.5348  2.13102462 27404
BEIDOU-3 G3             
1 45807U 20040A   23266.57316916 -.00000356  00000+0  00000+0 0  9990
2 45807   0.6024 347.6962 0005942 325.9640   5.3086  1.00265161 12067
NAVSTAR 79 (USA 304)    
1 45854U 20041A   23266.79142984  .00000013  00000+0  00000+0 0  9998
2 45854  55.8997  67.9565 0037033 186.7060 330.0478  2.00562845 24028
GALAXY 30 (G-30)        
1 46114U 20056C   23266.57419274  .00000034  00000+0  00000+0 0  9992
2 46114   0.0198 170.6398 0002318   9.5375 263.6892  1.00270470 11282
COSMOS 2547             
1 46805U 20075A   23265.35879577  .00000063  00000+0  00000+0 0  9993
2 46805  64.6148 225.8976 0008206 243.9312 115.9783  2.13102821 22629
NAVSTAR 80 (USA 309)    
1 46826U 20078A   23266.34055959  .00000055  00000+0  00000+0 0  9990
2 46826  54.3039 251.2927 0036276 195.0184 331.7501  2.00562678 21494
NAVSTAR 81 (USA 319)    
1 48859U 21054A   23266.36799767 -.00000079  00000+0  00000+0 0  9994
2 48859  55.3415  12.4654 0012751 212.5379 156.9390  2.00572349 16749
QZS-1R                  
1 49336U 21096A   23265.85813100 -.00000217  00000+0  00000+0 0  9996
2 49336  35.3897  94.6316 0744464 269.6232  80.4642  1.00286415  6995
GSAT0223 (GALILEO 27)   
1 49809U 21116A   23263.29562010 -.00000078  00000+0  00000+0 0  9996
2 49809  57.2807   8.6712 0003442 185.4216 185.4326  1.70476195 11129
GSAT0224 (GALILEO 28)   
1 49810U 21116B   23260.16048331 -.00000084  00000+0  00000+0 0  9993
2 49810  57.2808   8.7537 0002873 176.7344 182.4953  1.70476406 11083
COSMOS 2557             
1 52984U 22075A   23265.52147994 -.00000063  00000+0  00000+0 0  9991
2 52984  64.7550 349.4501 0012352 275.2347  84.6748  2.13102234  9437
COSMOS 2559             
1 54031U 22130A   23265.46351792 -.00000063  00000+0  00000+0 0  9994
2 54031  64.7262 349.5791 0007447 219.9700 140.0254  2.13101453  7407
COSMOS 2564             
1 54377U 22161A   23266.59505221  .00000051  00000+0  00000+0 0  9990
2 54377  64.7554 225.9126 0010389 225.3851 134.5226  2.13102114  6377
NAVSTAR 82 (USA 343)    
1 55268U 23009A   23262.59589436  .00000032  00000+0  00000+0 0  9997
2 55268  55.0881 187.8164 0004614  91.7836 114.4272  2.00554732  5159
BEIDOU-3 G4             
1 56564U 23066A   23266.72132056 -.00000117  00000+0  00000+0 0  9996
2 56564   2.7989 288.7238 0006791 215.7554 277.5427  1.00271877  1405
IRNSS-1J (NVS-01)       
1 56759U 23076A   23266.50028317 -.00000343  00000+0  00000+0 0  9994
2 56759   4.6932 271.7129 0006286 343.4806  56.4776  1.00277520  1119
